ONEWEB-0536             
1 54148U 22138AM  26197.61317922  .00000071  00000+0  14351-3 0  9998
2 54148  87.9173 268.5904 0002716  78.7450 281.3989 13.20773285183189
ONEWEB-0527             
1 54642U 22166A   26197.62254191  .00000025  00000+0  29415-4 0  9994
2 54642  87.9231 238.1386 0002094  97.3302 262.8070 13.21827837175429
ONEWEB-0528             
1 54643U 22166B   26197.62338590 -.00000001  00000+0 -33047-4 0  9993
2 54643  87.9233 238.1411 0002212 101.0327 259.1055 13.21826254175438
ONEWEB-0539             
1 54644U 22166C   26197.66122683 -.00000008  00000+0 -51912-4 0  9990
2 54644  87.9238 238.1070 0001873  96.4657 263.6690 13.21823653175435
ONEWEB-0540             
1 54645U 22166D   26197.59240130  .00000094  00000+0  19646-3 0  9991
2 54645  87.9233 238.1491 0002011  94.4226 265.7138 13.21823634175410
ONEWEB-0542             
1 54646U 22166E   26197.59563609  .00000040  00000+0  64954-4 0  9995
2 54646  87.9240 238.1192 0001765  95.1209 265.0126 13.21826136175422
ONEWEB-0545             
1 54647U 22166F   26197.63600784 -.00000007  00000+0 -48603-4 0  9995
2 54647  87.9232 238.1207 0001503  89.4724 270.6582 13.21826395175390
ONEWEB-0580             
1 54648U 22166G   26197.61075750  .00000070  00000+0  13730-3 0  9993
2 54648  87.9231 238.1255 0001790  87.1319 273.0019 13.21823636175438
ONEWEB-0582             
1 54649U 22166H   26197.65280564 -.00000104  00000+0 -28298-3 0  9994
2 54649  87.9235 238.1098 0001644  92.1289 268.0033 13.21823885175412
ONEWEB-0583             
1 54650U 22166J   26197.66460506 -.00000006  00000+0 -45637-4 0  9991
2 54650  87.9233 238.1308 0001982  95.0033 265.1327 13.21825997175421
ONEWEB-0584             
1 54651U 22166K   26197.60908497  .00000872  00000+0  20808-2 0  9992
2 54651  87.9228 238.1267 0001919  95.5310 264.6042 13.21820768175400
ONEWEB-0585             
1 54652U 22166L   26197.63262420 -.00000074  00000+0 -21109-3 0  9997
2 54652  87.9234 238.1098 0002230  98.0718 262.0669 13.21823841175410
ONEWEB-0586             
1 54653U 22166M   26197.64608604  .00000017  00000+0  91726-5 0  9996
2 54653  87.9232 238.1323 0001892  98.1414 261.9934 13.21824121175412
ONEWEB-0587             
1 54654U 22166N   26197.58050059 -.00000049  00000+0 -15036-3 0  9990
2 54654  87.9245 238.1221 0002461  98.2118 261.9295 13.21825489175563
ONEWEB-0589             
1 54655U 22166P   26197.64273715 -.00000037  00000+0 -12018-3 0  9998
2 54655  87.9231 238.1179 0001367  78.4295 281.6992 13.21826153175439
ONEWEB-0590             
1 54656U 22166Q   26197.59211912  .00000086  00000+0  17693-3 0  9990
2 54656  87.9240 238.1213 0002286  84.3194 275.8200 13.21825916175415
ONEWEB-0591             
1 54657U 22166R   26197.60402203 -.00000167  00000+0 -43497-3 0  9991
2 54657  87.9230 238.1310 0002063  93.1377 266.9993 13.21825490175447
ONEWEB-0592             
1 54658U 22166S   26197.60740022  .00000041  00000+0  67636-4 0  9997
2 54658  87.9239 238.1112 0002055  95.9266 264.2103 13.21823950175325
ONEWEB-0593             
1 54659U 22166T   26197.62927197  .00000022  00000+0  22618-4 0  9990
2 54659  87.9234 238.1163 0001923  97.9460 262.1893 13.21826104175437
ONEWEB-0594             
1 54660U 22166U   26197.64945493  .00000017  00000+0  97036-5 0  9994
2 54660  87.9232 238.1277 0002206 100.1288 260.0095 13.21824730175459
ONEWEB-0595             
1 54661U 22166V   26197.62591456  .00000009  00000+0 -96066-5 0  9993
2 54661  87.9240 238.1160 0002335  96.2599 263.8801 13.21825924175422
ONEWEB-0596             
1 54662U 22166W   26197.60066839  .00000039  00000+0  62189-4 0  9994
2 54662  87.9233 238.1306 0002149  95.0332 265.1047 13.21824009175422
ONEWEB-0597             
1 54663U 22166X   26197.65786275 -.00000112  00000+0 -30229-3 0  9996
2 54663  87.9232 238.1218 0001985  94.8818 265.2543 13.21823701175438
ONEWEB-0600             
1 54664U 22166Y   26197.63937404 -.00000068  00000+0 -19639-3 0  9999
2 54664  87.9233 238.1170 0001978 101.0798 259.0559 13.21826012175400
ONEWEB-0601             
1 54665U 22166Z   26197.63095418 -.00000027  00000+0 -96793-4 0  9992
2 54665  87.9231 238.1344 0001803  94.3035 265.8305 13.21825053175595
ONEWEB-0602             
1 54666U 22166AA  26197.59646332  .00000056  00000+0  10350-3 0  9999
2 54666  87.9230 238.1472 0001962 102.1599 257.9754 13.21823792175437
ONEWEB-0603             
1 54667U 22166AB  26197.60234748  .00000025  00000+0  29772-4 0  9991
2 54667  87.9241 238.1060 0001987  96.0228 264.1133 13.21823838175364
ONEWEB-0604             
1 54668U 22166AC  26197.66626855  .00000057  00000+0  10687-3 0  9991
2 54668  87.9243 238.1091 0002123  96.6553 263.4823 13.21824195175333
ONEWEB-0605             
1 54669U 22166AD  26197.65954131 -.00000086  00000+0 -23874-3 0  9998
2 54669  87.9233 238.1214 0001879  79.0153 281.1192 13.21823486175404
ONEWEB-0606             
1 54670U 22166AE  26197.60571523  .00000074  00000+0  14738-3 0  9999
2 54670  87.9232 238.1443 0002192  98.9566 261.1816 13.21825748175455
ONEWEB-0607             
1 54671U 22166AF  26197.64778265  .00000021  00000+0  19568-4 0  9995
2 54671  87.9238 238.1087 0001893  96.7471 263.3879 13.21826097175433
