OBJECT_NAME,OBJECT_ID,EPOCH,MEAN_MOTION,ECCENTRICITY,INCLINATION,RA_OF_ASC_NODE,ARG_OF_PERICENTER,MEAN_ANOMALY,EPHEMERIS_TYPE,CLASSIFICATION_TYPE,NORAD_CAT_ID,ELEMENT_SET_NO,REV_AT_EPOCH,BSTAR,MEAN_MOTION_DOT,MEAN_MOTION_DDOT
ONEWEB-0536,2022-138AM,2026-07-16T14:42:58.684608,13.20773285,.0002716,87.9173,268.5904,78.7450,281.3989,0,U,54148,999,18318,.14351E-3,.71E-6,0
ONEWEB-0527,2022-166A,2026-07-16T14:56:27.621024,13.21827837,.0002094,87.9231,238.1386,97.3302,262.8070,0,U,54642,999,17542,.29415E-4,.25E-6,0
ONEWEB-0528,2022-166B,2026-07-16T14:57:40.541760,13.21826254,.0002212,87.9233,238.1411,101.0327,259.1055,0,U,54643,999,17543,-.33047E-4,-.1E-7,0
ONEWEB-0539,2022-166C,2026-07-16T15:52:09.998112,13.21823653,.0001873,87.9238,238.1070,96.4657,263.6690,0,U,54644,999,17543,-.51912E-4,-.8E-7,0
ONEWEB-0540,2022-166D,2026-07-16T14:13:03.472320,13.21823634,.0002011,87.9233,238.1491,94.4226,265.7138,0,U,54645,999,17541,.19646E-3,.94E-6,0
ONEWEB-0542,2022-166E,2026-07-16T14:17:42.958176,13.21826136,.0001765,87.9240,238.1192,95.1209,265.0126,0,U,54646,999,17542,.64954E-4,.4E-6,0
ONEWEB-0545,2022-166F,2026-07-16T15:15:51.077376,13.21826395,.0001503,87.9232,238.1207,89.4724,270.6582,0,U,54647,999,17539,-.48603E-4,-.7E-7,0
ONEWEB-0580,2022-166G,2026-07-16T14:39:29.448000,13.21823636,.000179,87.9231,238.1255,87.1319,273.0019,0,U,54648,999,17543,.1373E-3,.7E-6,0
ONEWEB-0582,2022-166H,2026-07-16T15:40:02.407296,13.21823885,.0001644,87.9235,238.1098,92.1289,268.0033,0,U,54649,999,17541,-.28298E-3,-.104E-5,0
ONEWEB-0583,2022-166J,2026-07-16T15:57:01.877184,13.21825997,.0001982,87.9233,238.1308,95.0033,265.1327,0,U,54650,999,17542,-.45637E-4,-.6E-7,0
ONEWEB-0584,2022-166K,2026-07-16T14:37:04.941408,13.21820768,.0001919,87.9228,238.1267,95.5310,264.6042,0,U,54651,999,17540,.20808E-2,.872E-5,0
ONEWEB-0585,2022-166L,2026-07-16T15:10:58.730880,13.21823841,.000223,87.9234,238.1098,98.0718,262.0669,0,U,54652,999,17541,-.21109E-3,-.74E-6,0
ONEWEB-0586,2022-166M,2026-07-16T15:30:21.833856,13.21824121,.0001892,87.9232,238.1323,98.1414,261.9934,0,U,54653,999,17541,.91726E-5,.17E-6,0
ONEWEB-0587,2022-166N,2026-07-16T13:55:55.250976,13.21825489,.0002461,87.9245,238.1221,98.2118,261.9295,0,U,54654,999,17556,-.15036E-3,-.49E-6,0
ONEWEB-0589,2022-166P,2026-07-16T15:25:32.489760,13.21826153,.0001367,87.9231,238.1179,78.4295,281.6992,0,U,54655,999,17543,-.12018E-3,-.37E-6,0
ONEWEB-0590,2022-166Q,2026-07-16T14:12:39.091968,13.21825916,.0002286,87.9240,238.1213,84.3194,275.8200,0,U,54656,999,17541,.17693E-3,.86E-6,0
ONEWEB-0591,2022-166R,2026-07-16T14:29:47.503392,13.21825490,.0002063,87.9230,238.1310,93.1377,266.9993,0,U,54657,999,17544,-.43497E-3,-.167E-5,0
ONEWEB-0592,2022-166S,2026-07-16T14:34:39.379008,13.21823950,.0002055,87.9239,238.1112,95.9266,264.2103,0,U,54658,999,17532,.67636E-4,.41E-6,0
ONEWEB-0593,2022-166T,2026-07-16T15:06:09.098208,13.21826104,.0001923,87.9234,238.1163,97.9460,262.1893,0,U,54659,999,17543,.22618E-4,.22E-6,0
ONEWEB-0594,2022-166U,2026-07-16T15:35:12.905952,13.21824730,.0002206,87.9232,238.1277,100.1288,260.0095,0,U,54660,999,17545,.97036E-5,.17E-6,0
ONEWEB-0595,2022-166V,2026-07-16T15:01:19.017984,13.21825924,.0002335,87.9240,238.1160,96.2599,263.8801,0,U,54661,999,17542,-.96066E-5,.9E-7,0
ONEWEB-0596,2022-166W,2026-07-16T14:24:57.748896,13.21824009,.0002149,87.9233,238.1306,95.0332,265.1047,0,U,54662,999,17542,.62189E-4,.39E-6,0
ONEWEB-0597,2022-166X,2026-07-16T15:47:19.341600,13.21823701,.0001985,87.9232,238.1218,94.8818,265.2543,0,U,54663,999,17543,-.30229E-3,-.112E-5,0
ONEWEB-0600,2022-166Y,2026-07-16T15:20:41.917056,13.21826012,.0001978,87.9233,238.1170,101.0798,259.0559,0,U,54664,999,17540,-.19639E-3,-.68E-6,0
ONEWEB-0601,2022-166Z,2026-07-16T15:08:34.441152,13.21825053,.0001803,87.9231,238.1344,94.3035,265.8305,0,U,54665,999,17559,-.96793E-4,-.27E-6,0
ONEWEB-0602,2022-166AA,2026-07-16T14:18:54.430848,13.21823792,.0001962,87.9230,238.1472,102.1599,257.9754,0,U,54666,999,17543,.1035E-3,.56E-6,0
ONEWEB-0603,2022-166AB,2026-07-16T14:27:22.822272,13.21823838,.0001987,87.9241,238.1060,96.0228,264.1133,0,U,54667,999,17536,.29772E-4,.25E-6,0
ONEWEB-0604,2022-166AC,2026-07-16T15:59:25.602720,13.21824195,.0002123,87.9243,238.1091,96.6553,263.4823,0,U,54668,999,17533,.10687E-3,.57E-6,0
ONEWEB-0605,2022-166AD,2026-07-16T15:49:44.369184,13.21823486,.0001879,87.9233,238.1214,79.0153,281.1192,0,U,54669,999,17540,-.23874E-3,-.86E-6,0
ONEWEB-0606,2022-166AE,2026-07-16T14:32:13.795872,13.21825748,.0002192,87.9232,238.1443,98.9566,261.1816,0,U,54670,999,17545,.14738E-3,.74E-6,0
ONEWEB-0607,2022-166AF,2026-07-16T15:32:48.420960,13.21826097,.0001893,87.9238,238.1087,96.7471,263.3879,0,U,54671,999,17543,.19568E-4,.21E-6,0
